date:2024-08-27T23:16:45+00:00
validtle:1
satid:59547
launchyear:2024
epoch:24240.39538403
epochday:240
tleage:1
tleclassification:U
active:1
name:STARLINK-31736
meananomly:66.8878
meanmotion:15.4073
rightascension:0.0000
declination:0.0000
semimajoraxis:6822.1018283637
altitudeatperigee:443
altitudeatapogee:445
inclination:43.0039
eccentricity:0.0001826
argumentofperigree:293.1786
nickname:STARLINK-31736
idesg:24074P  
cosparid:2024-074P
altkm:443.25061972761
velkms:7.6482285319013
velkmh:27534
onumepoch:2022
onumnow:31177.76
otype:1
otypedesc:Low Earth Orbit (LEO)
status:1
timestamp:2024-08-27T09:29:21+00:00
nowjuliandate:2460550.4699666
nowepochdate:24241.9699652778
TLE:
STARLINK-31736
1 59547U 24074P   24240.39538403 -.00005179  00000+0 -11667-3 0  9991
2 59547  43.0039 284.0872 0001826 293.1786  66.8878 15.40726882 20227